O3B FM5                 
1 39188U 13031A   26032.71428275 -.00000025  00000+0  00000+0 0  9992
2 39188   0.0906  23.0753 0003446 283.4451  53.4404  5.00116407230267
O3B FM4                 
1 39189U 13031B   26032.83335488 -.00000026  00000+0  00000+0 0  9990
2 39189   0.0572 346.8195 0004957 339.7845  33.3571  5.00115035230272
O3B FM2                 
1 39190U 13031C   26032.89909183 -.00000026  00000+0  00000+0 0  9997
2 39190   0.0598 341.1989 0002878 330.6647  48.1042  5.00115949230339
O3B PFM                 
1 39191U 13031D   26031.71385640 -.00000024  00000+0  00000+0 0  9992
2 39191   0.0618  11.8457 0004547 321.1490  26.9745  5.00115965229846
O3B FM3                 
1 40079U 14038A   26032.58002492 -.00000025  00000+0  00000+0 0  9995
2 40079   0.0527 354.0726 0000309 285.8816  80.0348  5.00115527206268
O3B FM7                 
1 40080U 14038B   26031.32676464 -.00000024  00000+0  00000+0 0  9993
2 40080   0.0595 351.2386 0004560 315.8614  52.8514  5.00115552211030
O3B FM6                 
1 40081U 14038C   26032.75301391 -.00000025  00000+0  00000+0 0  9997
2 40081   0.0551 352.3844 0002712 318.0134  49.5710  5.00115642211045
O3B FM8                 
1 40082U 14038D   26032.60645834 -.00000025  00000+0  00000+0 0  9995
2 40082   0.0562 351.9294 0002634 323.7772  44.2648  5.00115909211167
O3B FM10                
1 40348U 14083A   26015.04307774 -.00000018  00000+0  00000+0 0  9999
2 40348   0.0506 359.9234 0002713 293.4028  66.6427  5.00115333202228
O3B FM11                
1 40349U 14083B   26032.64621370 -.00000025  00000+0  00000+0 0  9994
2 40349   0.0543   1.9908 0003276 301.8922  56.0783  5.00115542203135
O3B FM12                
1 40350U 14083C   26032.87322154 -.00000026  00000+0  00000+0 0  9990
2 40350   0.0539   1.0325 0002727 306.5544  52.3808  5.00115858203157
O3B FM9                 
1 40351U 14083D   26032.90004820 -.00000026  00000+0  00000+0 0  9992
2 40351   0.0551   2.5436 0002762 309.6219  47.8035  5.00115849203299
LEO 1 (LEO VANTAGE 1)   
1 43113U 18004C   26032.69446132  .00002406  00000+0  17117-3 0  9994
2 43113  99.2516 293.3440 0354183 134.9811 228.0686 14.66902834417616
O3B FM15                
1 43231U 18024A   26032.76690566 -.00000025  00000+0  00000+0 0  9992
2 43231   0.0463 359.5249 0002784 308.4536  51.9887  5.00115591144245
O3B FM16                
1 43232U 18024B   26032.81929376 -.00000026  00000+0  00000+0 0  9994
2 43232   0.0421 359.7450 0002850 307.7669  52.4546  5.00115793144162
O3B FM14                
1 43233U 18024C   26032.66014087 -.00000025  00000+0  00000+0 0  9991
2 43233   0.0413 357.9949 0002883 314.9796  46.9937  5.00115524144179
O3B FM20                
1 44112U 19020A   26032.68615433 -.00000025  00000+0  00000+0 0  9999
2 44112   0.0497 359.5822 0002981 301.4426  58.9383  5.00115426124780
