[{"OBJECT_NAME":"O3B FM5","OBJECT_ID":"2013-031A","EPOCH":"2026-02-01T17:08:34.029600","MEAN_MOTION":5.00116407,"ECCENTRICITY":0.00034463,"INCLINATION":0.0906,"RA_OF_ASC_NODE":23.0753,"ARG_OF_PERICENTER":283.4451,"MEAN_ANOMALY":53.4404,"EPHEMERIS_TYPE":0,"CLASSIFICATION_TYPE":"U","NORAD_CAT_ID":39188,"ELEMENT_SET_NO":999,"REV_AT_EPOCH":23026,"BSTAR":0,"MEAN_MOTION_DOT":-2.5e-7,"MEAN_MOTION_DDOT":0},{"OBJECT_NAME":"O3B FM4","OBJECT_ID":"2013-031B","EPOCH":"2026-02-01T20:00:01.861632","MEAN_MOTION":5.00115035,"ECCENTRICITY":0.00049579,"INCLINATION":0.0572,"RA_OF_ASC_NODE":346.8195,"ARG_OF_PERICENTER":339.7845,"MEAN_ANOMALY":33.3571,"EPHEMERIS_TYPE":0,"CLASSIFICATION_TYPE":"U","NORAD_CAT_ID":39189,"ELEMENT_SET_NO":999,"REV_AT_EPOCH":23027,"BSTAR":0,"MEAN_MOTION_DOT":-2.6e-7,"MEAN_MOTION_DDOT":0},{"OBJECT_NAME":"O3B FM2","OBJECT_ID":"2013-031C","EPOCH":"2026-02-01T21:34:41.534112","MEAN_MOTION":5.00115949,"ECCENTRICITY":0.00028784,"INCLINATION":0.0598,"RA_OF_ASC_NODE":341.1989,"ARG_OF_PERICENTER":330.6647,"MEAN_ANOMALY":48.1042,"EPHEMERIS_TYPE":0,"CLASSIFICATION_TYPE":"U","NORAD_CAT_ID":39190,"ELEMENT_SET_NO":999,"REV_AT_EPOCH":23033,"BSTAR":0,"MEAN_MOTION_DOT":-2.6e-7,"MEAN_MOTION_DDOT":0},{"OBJECT_NAME":"O3B PFM","OBJECT_ID":"2013-031D","EPOCH":"2026-01-31T17:07:57.192960","MEAN_MOTION":5.00115965,"ECCENTRICITY":0.00045473,"INCLINATION":0.0618,"RA_OF_ASC_NODE":11.8457,"ARG_OF_PERICENTER":321.149,"MEAN_ANOMALY":26.9745,"EPHEMERIS_TYPE":0,"CLASSIFICATION_TYPE":"U","NORAD_CAT_ID":39191,"ELEMENT_SET_NO":999,"REV_AT_EPOCH":22984,"BSTAR":0,"MEAN_MOTION_DOT":-2.4e-7,"MEAN_MOTION_DDOT":0},{"OBJECT_NAME":"O3B FM3","OBJECT_ID":"2014-038A","EPOCH":"2026-02-01T13:55:14.153088","MEAN_MOTION":5.00115527,"ECCENTRICITY":3.095e-5,"INCLINATION":0.0527,"RA_OF_ASC_NODE":354.0726,"ARG_OF_PERICENTER":285.8816,"MEAN_ANOMALY":80.0348,"EPHEMERIS_TYPE":0,"CLASSIFICATION_TYPE":"U","NORAD_CAT_ID":40079,"ELEMENT_SET_NO":999,"REV_AT_EPOCH":20626,"BSTAR":0,"MEAN_MOTION_DOT":-2.5e-7,"MEAN_MOTION_DDOT":0},{"OBJECT_NAME":"O3B FM7","OBJECT_ID":"2014-038B","EPOCH":"2026-01-31T07:50:32.464896","MEAN_MOTION":5.00115552,"ECCENTRICITY":0.00045606,"INCLINATION":0.0595,"RA_OF_ASC_NODE":351.2386,"ARG_OF_PERICENTER":315.8614,"MEAN_ANOMALY":52.8514,"EPHEMERIS_TYPE":0,"CLASSIFICATION_TYPE":"U","NORAD_CAT_ID":40080,"ELEMENT_SET_NO":999,"REV_AT_EPOCH":21103,"BSTAR":0,"MEAN_MOTION_DOT":-2.4e-7,"MEAN_MOTION_DDOT":0},{"OBJECT_NAME":"O3B FM6","OBJECT_ID":"2014-038C","EPOCH":"2026-02-01T18:04:20.401824","MEAN_MOTION":5.00115642,"ECCENTRICITY":0.00027129,"INCLINATION":0.0551,"RA_OF_ASC_NODE":352.3844,"ARG_OF_PERICENTER":318.0134,"MEAN_ANOMALY":49.571,"EPHEMERIS_TYPE":0,"CLASSIFICATION_TYPE":"U","NORAD_CAT_ID":40081,"ELEMENT_SET_NO":999,"REV_AT_EPOCH":21104,"BSTAR":0,"MEAN_MOTION_DOT":-2.5e-7,"MEAN_MOTION_DDOT":0},{"OBJECT_NAME":"O3B FM8","OBJECT_ID":"2014-038D","EPOCH":"2026-02-01T14:33:18.000576","MEAN_MOTION":5.00115909,"ECCENTRICITY":0.00026341,"INCLINATION":0.0562,"RA_OF_ASC_NODE":351.9294,"ARG_OF_PERICENTER":323.7772,"MEAN_ANOMALY":44.2648,"EPHEMERIS_TYPE":0,"CLASSIFICATION_TYPE":"U","NORAD_CAT_ID":40082,"ELEMENT_SET_NO":999,"REV_AT_EPOCH":21116,"BSTAR":0,"MEAN_MOTION_DOT":-2.5e-7,"MEAN_MOTION_DDOT":0},{"OBJECT_NAME":"O3B FM10","OBJECT_ID":"2014-083A","EPOCH":"2026-01-15T01:02:01.916736","MEAN_MOTION":5.00115333,"ECCENTRICITY":0.00027133,"INCLINATION":0.0506,"RA_OF_ASC_NODE":359.9234,"ARG_OF_PERICENTER":293.4028,"MEAN_ANOMALY":66.6427,"EPHEMERIS_TYPE":0,"CLASSIFICATION_TYPE":"U","NORAD_CAT_ID":40348,"ELEMENT_SET_NO":999,"REV_AT_EPOCH":20222,"BSTAR":0,"MEAN_MOTION_DOT":-1.8e-7,"MEAN_MOTION_DDOT":0},{"OBJECT_NAME":"O3B FM11","OBJECT_ID":"2014-083B","EPOCH":"2026-02-01T15:30:32.863680","MEAN_MOTION":5.00115542,"ECCENTRICITY":0.00032761,"INCLINATION":0.0543,"RA_OF_ASC_NODE":1.9908,"ARG_OF_PERICENTER":301.8922,"MEAN_ANOMALY":56.0783,"EPHEMERIS_TYPE":0,"CLASSIFICATION_TYPE":"U","NORAD_CAT_ID":40349,"ELEMENT_SET_NO":999,"REV_AT_EPOCH":20313,"BSTAR":0,"MEAN_MOTION_DOT":-2.5e-7,"MEAN_MOTION_DDOT":0},{"OBJECT_NAME":"O3B FM12","OBJECT_ID":"2014-083C","EPOCH":"2026-02-01T20:57:26.341056","MEAN_MOTION":5.00115858,"ECCENTRICITY":0.00027278,"INCLINATION":0.0539,"RA_OF_ASC_NODE":1.0325,"ARG_OF_PERICENTER":306.5544,"MEAN_ANOMALY":52.3808,"EPHEMERIS_TYPE":0,"CLASSIFICATION_TYPE":"U","NORAD_CAT_ID":40350,"ELEMENT_SET_NO":999,"REV_AT_EPOCH":20315,"BSTAR":0,"MEAN_MOTION_DOT":-2.6e-7,"MEAN_MOTION_DDOT":0},{"OBJECT_NAME":"O3B FM9","OBJECT_ID":"2014-083D","EPOCH":"2026-02-01T21:36:04.164480","MEAN_MOTION":5.00115849,"ECCENTRICITY":0.00027621,"INCLINATION":0.0551,"RA_OF_ASC_NODE":2.5436,"ARG_OF_PERICENTER":309.6219,"MEAN_ANOMALY":47.8035,"EPHEMERIS_TYPE":0,"CLASSIFICATION_TYPE":"U","NORAD_CAT_ID":40351,"ELEMENT_SET_NO":999,"REV_AT_EPOCH":20329,"BSTAR":0,"MEAN_MOTION_DOT":-2.6e-7,"MEAN_MOTION_DDOT":0},{"OBJECT_NAME":"LEO 1 (LEO VANTAGE 1)","OBJECT_ID":"2018-004C","EPOCH":"2026-02-01T16:40:01.458048","MEAN_MOTION":14.66902834,"ECCENTRICITY":0.03541831,"INCLINATION":99.2516,"RA_OF_ASC_NODE":293.344,"ARG_OF_PERICENTER":134.9811,"MEAN_ANOMALY":228.0686,"EPHEMERIS_TYPE":0,"CLASSIFICATION_TYPE":"U","NORAD_CAT_ID":43113,"ELEMENT_SET_NO":999,"REV_AT_EPOCH":41761,"BSTAR":0.00017116761,"MEAN_MOTION_DOT":2.406e-5,"MEAN_MOTION_DDOT":0},{"OBJECT_NAME":"O3B FM15","OBJECT_ID":"2018-024A","EPOCH":"2026-02-01T18:24:20.649024","MEAN_MOTION":5.00115591,"ECCENTRICITY":0.00027843,"INCLINATION":0.0463,"RA_OF_ASC_NODE":359.5249,"ARG_OF_PERICENTER":308.4536,"MEAN_ANOMALY":51.9887,"EPHEMERIS_TYPE":0,"CLASSIFICATION_TYPE":"U","NORAD_CAT_ID":43231,"ELEMENT_SET_NO":999,"REV_AT_EPOCH":14424,"BSTAR":0,"MEAN_MOTION_DOT":-2.5e-7,"MEAN_MOTION_DDOT":0},{"OBJECT_NAME":"O3B FM16","OBJECT_ID":"2018-024B","EPOCH":"2026-02-01T19:39:46.980864","MEAN_MOTION":5.00115793,"ECCENTRICITY":0.00028501,"INCLINATION":0.0421,"RA_OF_ASC_NODE":359.745,"ARG_OF_PERICENTER":307.7669,"MEAN_ANOMALY":52.4546,"EPHEMERIS_TYPE":0,"CLASSIFICATION_TYPE":"U","NORAD_CAT_ID":43232,"ELEMENT_SET_NO":999,"REV_AT_EPOCH":14416,"BSTAR":0,"MEAN_MOTION_DOT":-2.6e-7,"MEAN_MOTION_DDOT":0},{"OBJECT_NAME":"O3B FM14","OBJECT_ID":"2018-024C","EPOCH":"2026-02-01T15:50:36.171168","MEAN_MOTION":5.00115524,"ECCENTRICITY":0.00028839,"INCLINATION":0.0413,"RA_OF_ASC_NODE":357.9949,"ARG_OF_PERICENTER":314.9796,"MEAN_ANOMALY":46.9937,"EPHEMERIS_TYPE":0,"CLASSIFICATION_TYPE":"U","NORAD_CAT_ID":43233,"ELEMENT_SET_NO":999,"REV_AT_EPOCH":14417,"BSTAR":0,"MEAN_MOTION_DOT":-2.5e-7,"MEAN_MOTION_DDOT":0},{"OBJECT_NAME":"O3B FM20","OBJECT_ID":"2019-020A","EPOCH":"2026-02-01T16:28:03.734112","MEAN_MOTION":5.00115426,"ECCENTRICITY":0.00029817,"INCLINATION":0.0497,"RA_OF_ASC_NODE":359.5822,"ARG_OF_PERICENTER":301.4426,"MEAN_ANOMALY":58.9383,"EPHEMERIS_TYPE":0,"CLASSIFICATION_TYPE":"U","NORAD_CAT_ID":44112,"ELEMENT_SET_NO":999,"REV_AT_EPOCH":12478,"BSTAR":0,"MEAN_MOTION_DOT":-2.5e-7,"MEAN_MOTION_DDOT":0}]
